IRIDIUM 166             
1 43570U 18061B   23342.37382905  .00000319  00000+0  10672-3 0  9997
2 43570  86.3972  81.9936 0002519  97.6000 262.5482 14.34216450281270
IRIDIUM 158             
1 43571U 18061C   23342.69095491  .00000301  00000+0  10033-3 0  9996
2 43571  86.3968  81.8693 0002145  86.3875 273.7566 14.34217815281289
IRIDIUM 165             
1 43572U 18061D   23343.34424193  .00000204  00000+0  65841-4 0  9995
2 43572  86.3969  81.6251 0002140  85.7503 274.3937 14.34217114281400
IRIDIUM 155             
1 43573U 18061E   23343.37595365  .00000298  00000+0  99231-4 0  9992
2 43573  86.3966  81.5266 0002241  98.6606 261.4844 14.34214589281386
IRIDIUM 154             
1 43574U 18061F   23343.35693268  .00000288  00000+0  95839-4 0  9991
2 43574  86.3970  81.6231 0002203 104.5394 255.6046 14.34214017281424
IRIDIUM 163             
1 43575U 18061G   23342.70997877  .00000284  00000+0  94481-4 0  9991
2 43575  86.3967  81.8375 0001858  92.8726 267.2682 14.34218615281305
IRIDIUM 156             
1 43576U 18061H   23342.75438212  .00000293  00000+0  97697-4 0  9992
2 43576  86.3968  81.8250 0002242  91.0112 269.1340 14.34218330281303
IRIDIUM 164             
1 43577U 18061J   23342.38649684  .00000354  00000+0  11925-3 0  9996
2 43577  86.3971  82.0054 0002085  89.6673 270.4762 14.34213439281299
